NORAD_CAT_ID,OBJECT_NAME,OBJECT_TYPE,EPOCH,MEAN_MOTION,ECCENTRICITY,INCLINATION,RA_OF_ASC_NODE,ARG_OF_PERICENTER,MEAN_ANOMALY,BSTAR,MEAN_MOTION_DOT,MEAN_MOTION_DDOT,TLE_LINE0,TLE_LINE1,TLE_LINE2,SEMIMAJOR_AXIS,PERIOD,APOGEE,PERIGEE,DECAYED
53866.0,STARLINK-4762,PAYLOAD,2022-10-27 08:00:01,15.73203256,0.0001607,53.2158,69.2589,28.7849,216.5952,0.00039041,0.00054536,0.0,0 STARLINK-4762,1 53866U 22114BA  22300.33334491  .00054536  00000-0  39041-3 0  9998,2 53866  53.2158  69.2589 0001607  28.7849 216.5952 15.73203256  6601,6727.886,91.533,350.832,348.67,0.0
53866.0,STARLINK-4762,PAYLOAD,2022-10-27 14:00:01,15.73241668,0.0001789,53.2156,68.0235,22.3842,199.7684,-0.00047022,-0.00066217,0.0,0 STARLINK-4762,1 53866U 22114BA  22300.58335648 -.00066217  00000-0 -47022-3 0  9999,2 53866  53.2156  68.0235 0001789  22.3842 199.7684 15.73241668  1303,6727.776,91.531,350.845,348.43800000000016,0.0
53866.0,STARLINK-4762,PAYLOAD,2022-10-27 22:00:00,15.73247173,0.0001918,53.2151,66.3742,18.1574,292.877,-9.5536e-05,-0.00014035,0.0,0 STARLINK-4762,1 53866U 22114BA  22300.91667824 -.00014035  00000-0 -95536-4 0  9995,2 53866  53.2151  66.3742 0001918  18.1574 292.8770 15.73247173  1309,6727.761,91.53,350.916,348.335,0.0
53866.0,STARLINK-4762,PAYLOAD,2022-10-28 00:00:02,15.73271693,0.0001885,53.2151,65.9612,20.9257,42.4116,-0.00049643,-0.00069933,0.0,0 STARLINK-4762,1 53866U 22114BA  22301.00002315 -.00069933  00000-0 -49643-3 0  9998,2 53866  53.2151  65.9612 0001885  20.9257  42.4116 15.73271693  6708,6727.691,91.529,350.824,348.288,0.0
53866.0,STARLINK-4762,PAYLOAD,2022-10-28 14:00:01,15.73216136,0.000208,53.2155,63.075,30.2858,98.747,6.4466e-05,8.442e-05,0.0,0 STARLINK-4762,1 53866U 22114BA  22301.58335648  .00008442  00000-0  64466-4 0  9996,2 53866  53.2155  63.0750 0002080  30.2858  98.7470 15.73216136  1302,6727.849,91.532,351.11400000000015,348.315,0.0
53866.0,STARLINK-4762,PAYLOAD,2022-10-28 22:00:01,15.7323634,0.0002231999999999,53.2155,61.4258,23.4288,194.492,3.0739e-05,3.701e-05,0.0,0 STARLINK-4762,1 53866U 22114BA  22301.91668981  .00003701  00000-0  30739-4 0  9991,2 53866  53.2155  61.4258 0002232  23.4288 194.4920 15.73236340  1300,6727.792,91.531,351.158,348.155,0.0
53866.0,STARLINK-4762,PAYLOAD,2022-10-29 12:00:00,15.73220841,0.000233,53.2156,58.5386,25.9745,257.6036,0.00023121,0.00031983,0.0,0 STARLINK-4762,1 53866U 22114BA  22302.50001157  .00031983  00000-0  23121-3 0  9992,2 53866  53.2156  58.5386 0002330  25.9745 257.6036 15.73220841  1303,6727.8359999999975,91.532,351.26800000000014,348.1330000000001,0.0
53866.0,STARLINK-4762,PAYLOAD,2022-10-29 22:00:01,15.7325867,0.0002472,53.2149,56.4769,22.9388,101.9129,-0.00024577,-0.00035063,0.0,0 STARLINK-4762,1 53866U 22114BA  22302.91668981 -.00035063  00000-0 -24577-3 0  9992,2 53866  53.2149  56.4769 0002472  22.9388 101.9129 15.73258670  1309,6727.728,91.53,351.256,347.93,0.0
53866.0,STARLINK-4762,PAYLOAD,2022-10-30 00:00:00,15.73273196,0.0002376,53.215,56.06399999999999,23.382,213.6458,-0.00052022,-0.00073238,0.0,0 STARLINK-4762,1 53866U 22114BA  22303.00001157 -.00073238  00000-0 -52022-3 0  9991,2 53866  53.2150  56.0640 0002376  23.3820 213.6458 15.73273196  7025,6727.686,91.529,351.15,347.95300000000015,0.0
53866.0,STARLINK-4762,PAYLOAD,2022-10-30 14:00:01,15.73206262,0.0002396,53.2152,53.1782,17.5437,285.0812,-0.00030464,-0.00043175,0.0,0 STARLINK-4762,1 53866U 22114BA  22303.58334491 -.00043175  00000-0 -30464-3 0  9997,2 53866  53.2152  53.1782 0002396  17.5437 285.0812 15.73206262  1305,6727.877,91.533,351.35400000000016,348.13,0.0
53866.0,STARLINK-4762,PAYLOAD,2022-10-30 22:00:01,15.73208004,0.0002514,53.2153,51.5283,14.9881,16.6151,-0.00022733,-0.00032419,0.0,0 STARLINK-4762,1 53866U 22114BA  22303.91668981 -.00032419  00000-0 -22733-3 0  9997,2 53866  53.2153  51.5283 0002514  14.9881  16.6151 15.73208004  1300,6727.871999999999,91.533,351.42900000000014,348.046,0.0
53866.0,STARLINK-4762,PAYLOAD,2022-10-31 14:00:01,15.73143172,0.0002821,53.2152,48.2297,24.6408,184.713,0.0004008,0.00055874,0.0,0 STARLINK-4762,1 53866U 22114BA  22304.58334491  .00055874  00000-0  40080-3 0  9990,2 53866  53.2152  48.2297 0002821  24.6408 184.7130 15.73143172  1309,6728.057,91.536,351.82,348.024,0.0
53866.0,STARLINK-4762,PAYLOAD,2022-10-31 22:00:01,15.73217416,0.0002723999999999,53.2146,46.5795,21.0012,277.2997,-0.0005449,-0.00076477,0.0,0 STARLINK-4762,1 53866U 22114BA  22304.91668981 -.00076477  00000-0 -54490-3 0  9995,2 53866  53.2146  46.5795 0002724  21.0012 277.2997 15.73217416  1302,6727.846,91.532,351.543,347.87800000000016,0.0
53866.0,STARLINK-4762,PAYLOAD,2022-11-01 00:00:02,15.73197011,0.000262,53.2148,46.1665,20.3982,30.1396,-0.0003741,-0.00052799,0.0,0 STARLINK-4762,1 53866U 22114BA  22305.00002315 -.00052799  00000-0 -37410-3 0  9993,2 53866  53.2148  46.1665 0002620  20.3982  30.1396 15.73197011  7335,6727.904,91.533,351.531,348.006,0.0
53866.0,STARLINK-4762,PAYLOAD,2022-11-01 14:00:01,15.73208846,0.0002787,53.215,43.2811,17.2049,98.8451,0.00023724,0.00032821,0.0,0 STARLINK-4762,1 53866U 22114BA  22305.58334491  .00032821  00000-0  23724-3 0  9994,2 53866  53.2150  43.2811 0002787  17.2049  98.8451 15.73208846  7435,6727.87,91.533,351.61,347.86,0.0
53866.0,STARLINK-4762,PAYLOAD,2022-11-01 22:00:00,15.73263498,0.0002805,53.2152,41.6307,14.9073,190.0944,-0.00078334,-0.00109464,0.0,0 STARLINK-4762,1 53866U 22114BA  22305.91667824 -.00109464  00000-0 -78334-3 0  9997,2 53866  53.2152  41.6307 0002805  14.9073 190.0944 15.73263498  1307,6727.714,91.529,351.466,347.69199999999995,0.0
53866.0,STARLINK-4762,PAYLOAD,2022-11-02 06:00:00,15.73177801,0.0002723,53.2155,39.9797,17.354,276.6098,2.9245e-05,3.481e-05,0.0,0 STARLINK-4762,1 53866U 22114BA  22306.25001157  .00003481  00000-0  29245-4 0  9994,2 53866  53.2155  39.9797 0002723  17.3540 276.6098 15.73177801  7532,6727.958000000001,91.534,351.655,347.991,0.0
53866.0,STARLINK-4762,PAYLOAD,2022-11-02 14:00:01,15.73169542,0.0003029,53.2159,38.3333,15.5773,7.2883,0.00052371,0.00073439,0.0,0 STARLINK-4762,1 53866U 22114BA  22306.58334491  .00073439  00000-0  52371-3 0  9995,2 53866  53.2159  38.3333 0003029  15.5773   7.2883 15.73169542  1305,6727.982,91.535,351.885,347.809,0.0
53866.0,STARLINK-4762,PAYLOAD,2022-11-02 22:00:00,15.73236277,0.0002957,53.2148,36.6817,12.9354,98.8425,-0.00026004,-0.00037023,0.0,0 STARLINK-4762,1 53866U 22114BA  22306.91667824 -.00037023  00000-0 -26004-3 0  9996,2 53866  53.2148  36.6817 0002957  12.9354  98.8425 15.73236277  7647,6727.792,91.531,351.646,347.667,0.0
53866.0,STARLINK-4762,PAYLOAD,2022-11-03 08:00:01,15.73255288,0.0002883,53.2152,34.6191,16.043,296.9375,-3.3482e-05,-5.331e-05,0.0,0 STARLINK-4762,1 53866U 22114BA  22307.33334491 -.00005331  00000-0 -33482-4 0  9990,2 53866  53.2152  34.6191 0002883  16.0430 296.9375 15.73255288  7708,6727.738,91.53,351.542,347.663,0.0
53866.0,STARLINK-4762,PAYLOAD,2022-11-03 14:00:01,15.73258626,0.000313,53.2153,33.3834,15.4045,274.314,-2.0395e-06,-9.11e-06,0.0,0 STARLINK-4762,1 53866U 22114BA  22307.58334491 -.00000911  00000-0 -20395-5 0  9996,2 53866  53.2153  33.3834 0003130  15.4045 274.3140 15.73258626  1309,6727.728,91.53,351.699,347.487,0.0
53866.0,STARLINK-4762,PAYLOAD,2022-11-03 22:00:00,15.73276122,0.000307,53.2156,31.7326,10.9895,7.7277,-0.00074178,-0.0010382,0.0,0 STARLINK-4762,1 53866U 22114BA  22307.91667824 -.00103820  00000-0 -74178-3 0  9991,2 53866  53.2156  31.7326 0003070  10.9895   7.7277 15.73276122  1306,6727.678000000001,91.529,351.6090000000001,347.478,0.0
53866.0,STARLINK-4762,PAYLOAD,2022-11-04 06:00:00,15.73215919,0.0002971,53.216,30.082,12.5996,95.0917,-0.00026487,-0.00037664,0.0,0 STARLINK-4762,1 53866U 22114BA  22308.25001157 -.00037664  00000-0 -26487-3 0  9992,2 53866  53.2160  30.0820 0002971  12.5996  95.0917 15.73215919  7855,6727.85,91.532,351.714,347.716,0.0
53866.0,STARLINK-4762,PAYLOAD,2022-11-04 14:00:01,15.73244101,0.0003132,53.2167,28.436,12.0768,184.5379,-0.0020336,-0.00277459,0.0,0 STARLINK-4762,1 53866U 22114BA  22308.58334491 -.00277459  00000-0 -20336-2 0  9992,2 53866  53.2167  28.4360 0003132  12.0768 184.5379 15.73244101  7901,6727.769,91.531,351.742,347.527,0.0
53866.0,STARLINK-4762,PAYLOAD,2022-11-04 22:00:01,15.73218437,0.0003181,53.2153,26.7836,9.9753,275.676,-0.00072321,-0.00101024,0.0,0 STARLINK-4762,1 53866U 22114BA  22308.91668981 -.00101024  00000-0 -72321-3 0  9999,2 53866  53.2153  26.7836 0003181   9.9753 275.6760 15.73218437  7952,6727.843000000003,91.532,351.848,347.56699999999995,0.0
53866.0,STARLINK-4762,PAYLOAD,2022-11-05 14:00:01,15.73041371,0.0003373,53.2157,23.4863,10.5565,92.8611,0.00057572,0.00080422,0.0,0 STARLINK-4762,1 53866U 22114BA  22309.58335648  .00080422  00000-0  57572-3 0  9991,2 53866  53.2157  23.4863 0003373  10.5565  92.8611 15.73041371  1300,6728.347,91.542,352.482,347.9430000000001,0.0
53866.0,STARLINK-4762,PAYLOAD,2022-11-05 22:00:01,15.73147413,0.0003316,53.2159,21.8356,8.4777,183.7013,0.00054113,0.00075855,0.0,0 STARLINK-4762,1 53866U 22114BA  22309.91668981  .00075855  00000-0  54113-3 0  9999,2 53866  53.2159  21.8356 0003316   8.4777 183.7013 15.73147413  8115,6728.045,91.536,352.141,347.67900000000014,0.0
53866.0,STARLINK-4762,PAYLOAD,2022-11-06 14:00:01,15.73174729,0.0003656,53.2158,18.5383,14.0191,355.9240000000001,0.0006917999999999,0.00097521,0.0,0 STARLINK-4762,1 53866U 22114BA  22310.58334491  .00097521  00000-0  69180-3 0  9994,2 53866  53.2158  18.5383 0003656  14.0191 355.9240 15.73174729  8213,6727.967,91.535,352.292,347.372,0.0
53866.0,STARLINK-4762,PAYLOAD,2022-11-07 00:00:00,15.73220026,0.0003382,53.2154,16.4743,10.1416,200.9926,-0.0002556,-0.00036383,0.0,0 STARLINK-4762,1 53866U 22114BA  22311.00001157 -.00036383  00000-0 -25560-3 0  9997,2 53866  53.2154  16.4743 0003382  10.1416 200.9926 15.73220026  8288,6727.8380000000025,91.532,351.978,347.42800000000005,0.0
